GOES 14                 
1 35491U 09033A   26115.87683596 -.00000057  00000+0  00000+0 0  9995
2 35491   1.5570  83.6370 0001710 311.6603 305.3506  1.00116377  6068
EWS-G2 (GOES 15)        
1 36411U 10008A   26115.79351898  .00000010  00000+0  00000+0 0  9998
2 36411   1.1398  83.8010 0003880  23.6059  95.3210  1.00272333 59110
GOES 16                 
1 41866U 16071A   26115.62544728 -.00000104  00000+0  00000+0 0  9997
2 41866   0.2096  85.2522 0001543 247.7106   1.1255  1.00271047 34573
GOES 17                 
1 43226U 18022A   26115.86780985 -.00000195  00000+0  00000+0 0  9990
2 43226   0.8053  86.4106 0000672 269.3830  81.0047  1.00272049 29899
GOES 18                 
1 51850U 22021A   26115.68255980  .00000083  00000+0  00000+0 0  9993
2 51850   0.0124  93.6914 0000386 357.8405 230.8777  1.00271801  6065
GOES 19                 
1 60133U 24119A   26115.86780985 -.00000262  00000+0  00000+0 0  9995
2 60133   0.0279  93.9673 0000576 349.8122   7.3054  1.00270221  6434
